INTELSAT 902 (IS-902)   
1 26900U 01039A   26169.52849991 -.00000292  00000+0  00000+0 0  9993
2 26900   6.1204  71.7676 0004307  12.4923 322.6674  1.00271543 90700
INTELSAT 904 (IS-904)   
1 27380U 02007A   26169.46096602 -.00000235  00000+0  00000+0 0  9995
2 27380   6.9241  69.1697 0006529   5.9759 326.0004  1.00270286 51770
DIRECTV 5 (TEMPO 1)     
1 27426U 02023A   26169.41919968 -.00000065  00000+0  00000+0 0  9999
2 27426   4.8819  75.2944 0003143  13.6987 218.4628  1.00271613 88131
INTELSAT 905 (IS-905)   
1 27438U 02027A   26169.46642175  .00000085  00000+0  00000+0 0  9995
2 27438   6.7576  69.7858 0003873  22.2862 205.3245  1.00271956 51371
GALAXY 3C (G-3C)        
1 27445U 02030A   26169.37701778 -.00000160  00000+0  00000+0 0  9997
2 27445   3.7359  77.9598 0001601  30.5698 198.9629  1.00271347 46509
INTELSAT 906 (IS-906)   
1 27513U 02041A   26169.20649959  .00000004  00000+0  00000+0 0  9995
2 27513   5.8051  72.9092 0004397   2.8775 329.1640  1.00275136 87038
GALAXY 13 (HORIZONS-1)  
1 27954U 03044A   26169.58005564  .00000126  00000+0  00000+0 0  9992
2 27954   1.4226  83.8481 0002231 355.3969 246.3787  1.00271651 46587
INTELSAT 10-02          
1 28358U 04022A   26169.39565120 -.00000018  00000+0  00000+0 0  9997
2 28358   0.0174 304.7073 0000025 284.0787 179.2747  1.00270100 80564
DIRECTV 8               
1 28659U 05019A   26169.59329071  .00000000  00000+0  00000+0 0  9993
2 28659   0.0194  11.5507 0002964  81.9335 267.8847  1.00269849 77088
GALAXY 28 (G-28)        
1 28702U 05022A   26169.46174602 -.00000208  00000+0  00000+0 0  9991
2 28702   3.3016  78.9193 0002841   7.7048 319.2277  1.00271106 51984
GALAXY 16 (G-16)        
1 29236U 06023A   26169.51879319 -.00000133  00000+0  00000+0 0  9996
2 29236   0.0098  94.1169 0002506 349.5713 270.8305  1.00271475 72984
DIRECTV 9S              
1 29494U 06043A   26169.51835986 -.00000120  00000+0  00000+0 0  9992
2 29494   2.4251  80.8865 0004966  13.5083 257.7733  1.00270963 51394
GALAXY 17 (G-17)        
1 31307U 07016B   26169.52156654 -.00000213  00000+0  00000+0 0  9991
2 31307   2.9764  79.8836 0004657  18.4949 271.1316  1.00271658 69817
INTELSAT 11 (IS-11)     
1 32253U 07044B   26169.62371454 -.00000215  00000+0  00000+0 0  9993
2 32253   3.5701  78.6527 0002427  88.8535  83.4456  0.99050198 68465
HORIZONS-2              
1 32388U 07063B   26169.52381988 -.00000261  00000+0  00000+0 0  9996
2 32388   2.6063  80.6082 0003850 358.1173 302.7926  1.00272958 67827
DIRECTV 11              
1 32729U 08013A   26169.51879319 -.00000132  00000+0  00000+0 0  9997
2 32729   0.0096 269.4720 0000152 187.3657 257.5063  1.00271979 45604
GALAXY 18 (G-18)        
1 32951U 08024A   26169.58534233  .00000019  00000+0  00000+0 0  9999
2 32951   0.0153  57.9523 0002790  27.4059 269.1864  1.00270366 45861
INTELSAT 25 (IS-25)     
1 33153U 08034A   26169.54330579 -.00000189  00000+0  00000+0 0  9997
2 33153   2.7143  80.3570 0003428  60.6103  77.0177  0.99034172 65702
GALAXY 19 (G-19)        
1 33376U 08045A   26169.51922653 -.00000145  00000+0  00000+0 0  9995
2 33376   0.0328 263.5639 0002513 188.3277 264.7905  1.00271189 64910
FM-5                    
1 35493U 09034A   26169.52139321 -.00000207  00000+0  00000+0 0  9998
2 35493   0.0186 296.2063 0000621  11.6391  60.4535  1.00277833 46654
INTELSAT 14 (IS-14)     
1 36097U 09064A   26169.45819267 -.00000280  00000+0  00000+0 0  9999
2 36097   0.0119 310.1717 0002295 135.4044 301.0751  1.00272000 60619
INTELSAT 15 (IS-15)     
1 36106U 09067A   26169.55532186 -.00000191  00000+0  00000+0 0  9997
2 36106   0.0150 336.6544 0002100 110.8384 104.3585  1.00272378 41240
DIRECTV 12              
1 36131U 09075A   26169.51809986 -.00000110  00000+0  00000+0 0  9996
2 36131   0.0436 170.7708 0000366 304.4205 235.3562  1.00271785 46560
INTELSAT 16 (IS-16)     
1 36397U 10006A   26169.52329988 -.00000251  00000+0  00000+0 0  9992
2 36397   0.0106 326.8305 0001928 134.2807 277.8288  1.00272434 59660
XM-5                    
1 37185U 10053A   26169.58690234 -.00000029  00000+0  00000+0 0  9994
2 37185   0.0620 273.1116 0002652 289.9429 159.8519  1.00270439 57492
INTELSAT 17 (IS-17)     
1 37238U 10065B   26169.55146668  .00000000  00000+0  00000+0 0  9998
2 37238   0.0244  72.7578 0002888  40.1363  58.3982  1.00272120 53260
INTELSAT 28 (IS-28)     
1 37392U 11016A   26169.38958451 -.00000232  00000+0  00000+0 0  9996
2 37392   1.8103  82.6007 0003595   6.0263 286.5334  1.00271560 53293
INTELSAT 18 (IS-18)     
1 37834U 11056A   26169.57407560  .00000046  00000+0  00000+0 0  9994
2 37834   0.0385 272.8390 0001718 174.1667 206.4639  1.00270855 53829
INTELSAT 22 (IS-22)     
1 38098U 12011A   26169.48141943 -.00000065  00000+0  00000+0 0  9991
2 38098   0.0136  37.1505 0001540  53.9901  60.9919  1.00272371  7204
INTELSAT 19 (IS-19)     
1 38356U 12030A   26169.57130226 -.00000063  00000+0  00000+0 0  9999
2 38356   0.0189   3.4111 0002926  92.3544 182.7035  1.00271393 50468
INTELSAT 20 (IS-20)     
1 38740U 12043A   26169.55181334  .00000000  00000+0  00000+0 0  9994
2 38740   0.0365  68.9244 0001819 108.0346 356.9762  1.00270903 50760
INTELSAT 21 (IS-21)     
1 38749U 12045A   26169.52693990 -.00000291  00000+0  00000+0 0  9991
2 38749   0.0178   9.6518 0001442  99.7246 289.0825  1.00277966 50531
INTELSAT 23 (IS-23)     
1 38867U 12057A   26169.45663266 -.00000291  00000+0  00000+0 0  9990
2 38867   0.0114 318.5348 0000163  62.9506 356.5856  1.00267542 49963
FM-6                    
1 39360U 13058A   26169.51541317  .00000000  00000+0  00000+0 0  9997
2 39360   0.0333  48.8344 0003220 148.7006 138.4746  1.00287718 46081
INTELSAT 30 (IS-30)     
1 40271U 14062A   26169.51957319 -.00000157  00000+0  00000+0 0  9993
2 40271   0.0277  53.4911 0001427 324.6893 340.5674  1.00270086  6801
DIRECTV 14              
1 40333U 14078B   26169.51879319 -.00000131  00000+0  00000+0 0  9994
2 40333   0.0104   4.1445 0000553 313.8676  36.2724  1.00269682 42054
DIRECTV 15              
1 40663U 15026A   26169.51801318 -.00000108  00000+0  00000+0 0  9992
2 40663   0.0140  51.8886 0000377 270.9775  27.4775  1.00267898 40474
SKY MEXICO-1            
1 40664U 15026B   26169.52277988 -.00000241  00000+0  00000+0 0  9992
2 40664   0.0118  45.6269 0002164  59.1547 271.3749  1.00274733 40462
INTELSAT 34 (IS-34)     
1 40874U 15039A   26169.51276029 -.00000292  00000+0  00000+0 0  9999
2 40874   0.0092   7.1617 0000428 323.8360  64.8508  1.00269408 39640
INTELSAT 31 (IS-31)     
1 41581U 16035A   26169.51957319 -.00000157  00000+0  00000+0 0  9990
2 41581   0.0156 292.5842 0000915 320.2559 105.9081  1.00273052 36694
INTELSAT 36 (IS-36)     
1 41747U 16053A   26169.55181334 -.00000031  00000+0  00000+0 0  9995
2 41747   0.0144  19.7909 0002081 313.7201 200.4230  1.00271248 35977
INTELSAT 32E (IS-32E)   
1 41945U 17007B   26169.52988659 -.00000275  00000+0  00000+0 0  9997
2 41945   0.0177   7.0361 0000987 324.9165  82.3849  1.00268167 34238
INTELSAT 35E (IS-35E)   
1 42818U 17041A   26169.46027269  .00000000  00000+0  00000+0 0  9994
2 42818   0.0196  10.0898 0002003  78.7192 309.0921  1.00271137 32827
INTELSAT 37E (IS-37E)   
1 42950U 17059A   26169.60605576  .00000000  00000+0  00000+0 0  9999
2 42950   0.0207  14.8074 0002590  97.8054 354.4310  1.00269170 32083
AZERSPACE 2 (IS-38)     
1 43632U 18074A   26169.47604609  .00000130  00000+0  00000+0 0  9990
2 43632   0.0177  12.1555 0001290  76.3170  34.7186  1.00271426 28462
HORIZONS-3E             
1 43633U 18074B   26169.57190892 -.00000037  00000+0  00000+0 0  9993
2 43633   0.0085 101.9714 0000776 173.2693   6.4569  1.00271511 28354
AT&T T-16               
1 44333U 19034A   26169.51844653 -.00000122  00000+0  00000+0 0  9998
2 44333   0.0213  64.3039 0000712 241.0117  47.2208  1.00272817 25644
INTELSAT 39 (IS-39)     
1 44476U 19049B   26169.59224809  .00000000  00000+0  00000+0 0  9999
2 44476   0.0192   7.9058 0000901 304.4232 229.6669  1.00273932 25145
GALAXY 30 (G-30)        
1 46114U 20056C   26169.58499566  .00000031  00000+0  00000+0 0  9997
2 46114   0.0005 358.2439 0002143  87.8738 266.2948  1.00272092 21304
GALAXY 33 (G-33)        
1 54026U 22128A   26169.58334898  .00000073  00000+0  00000+0 0  9992
2 54026   0.0166  41.1207 0001650  41.8279 260.8775  1.00269760 13752
GALAXY 34 (G-34)        
1 54027U 22128B   26169.64307292  .00000052  00000+0  00000+0 0  9995
2 54027   0.0104  30.3042 0001513  67.6466 271.4326  1.00274211 13920
GALAXY 31 (G-31)        
1 54243U 22153A   26169.58577566  .00000007  00000+0  00000+0 0  9999
2 54243   0.0167  73.5964 0001087   4.7088 278.3816  1.00271552  7141
GALAXY 32 (G-32)        
1 54244U 22153B   26169.59166903 -.00000181  00000+0  00000+0 0  9994
2 54244   0.0111  25.1390 0002080   9.2508 354.4398  1.00271685 13154
GALAXY 35 (G-35)        
1 54741U 22170A   26169.52000653 -.00000168  00000+0  00000+0 0  9992
2 54741   0.0147  40.8490 0001800  42.9723 277.0248  1.00271956 12909
GALAXY 36 (G-36)        
1 54742U 22170B   26169.62622627 -.00000192  00000+0  00000+0 0  9992
2 54742   0.0139 170.5363 0002512 273.4342 319.3284  1.00272554 12781
GALAXY 37 (G-37)        
1 57493U 23112A   26169.58456233  .00000042  00000+0  00000+0 0  9991
2 57493   0.0185 339.4936 0001909 106.0391 264.7299  1.00270120 10553
